{"type": "FeatureCollection", "features": [ {"type": "Feature", "properties": {"norad_id": 66696, "name": "IRIDE FM2", "group": "last-30-days", "lat": -35.07792426461154, "lon": -117.7253380738657, "alt_km": 519.1579974824899, "timestamp": "2025-12-21T22:41:40.164348+00:00", "meta": {"OBJECT_NAME": "IRIDE FM2", "OBJECT_ID": "2025-276AG", "EPOCH": "2025-12-21T12:15:07.943040", "MEAN_MOTION": 15.17389261, "ECCENTRICITY": 0.00024784, "INCLINATION": 97.4397, "RA_OF_ASC_NODE": 67.1124, "ARG_OF_PERICENTER": 275.5585, "MEAN_ANOMALY": 84.5365, "EPHEMERIS_TYPE": 0, "CLASSIFICATION_TYPE": "U", "NORAD_CAT_ID": 66696, "ELEMENT_SET_NO": 999, "REV_AT_EPOCH": 345, "BSTAR": 0.00041742029, "MEAN_MOTION_DOT": 8.277e-05, "MEAN_MOTION_DDOT": 0}, "tle": {"line1": "1 66696U 25276AG  25355.51050860  .00008277  00000+0  41742-3 0  9994", "line2": "2 66696  97.4397  67.1124 0002478 275.5585  84.5365 15.17389261  3459"}}, "geometry": {"type": "Point", "coordinates": [-117.7253380738657, -35.07792426461154]}}, {"type": "Feature", "properties": {"norad_id": 66697, "name": "IRIDE FM3", "group": "last-30-days", "lat": -79.46626752497131, "lon": 112.2121802520612, "alt_km": 519.19003156095, "timestamp": "2025-12-21T22:41:40.164357+00:00", "meta": {"OBJECT_NAME": "IRIDE FM3", "OBJECT_ID": "2025-276AH", "EPOCH": "2025-12-21T10:24:09.139104", "MEAN_MOTION": 15.18135979, "ECCENTRICITY": 0.00011003, "INCLINATION": 97.4395, "RA_OF_ASC_NODE": 67.063, "ARG_OF_PERICENTER": 159.0128, "MEAN_ANOMALY": 201.1152, "EPHEMERIS_TYPE": 0, "CLASSIFICATION_TYPE": "U", "NORAD_CAT_ID": 66697, "ELEMENT_SET_NO": 999, "REV_AT_EPOCH": 344, "BSTAR": 0.00042666854, "MEAN_MOTION_DOT": 8.646e-05, "MEAN_MOTION_DDOT": 0}, "tle": {"line1": "1 66697U 25276AH  25355.43343911  .00008646  00000+0  42667-3 0  9995", "line2": "2 66697  97.4395  67.0630 0001100 159.0128 201.1152 15.18135979  3445"}}, "geometry": {"type": "Point", "coordinates": [112.2121802520612, -79.46626752497131]}}, {"type": "Feature", "properties": {"norad_id": 66698, "name": "IRIDE FM4", "group": "last-30-days", "lat": -30.626095660680804, "lon": -116.89812777591273, "alt_km": 518.9336603979882, "timestamp": "2025-12-21T22:41:40.164370+00:00", "meta": {"OBJECT_NAME": "IRIDE FM4", "OBJECT_ID": "2025-276AJ", "EPOCH": "2025-12-21T07:31:23.797632", "MEAN_MOTION": 15.17313323, "ECCENTRICITY": 0.00026785, "INCLINATION": 97.4396, "RA_OF_ASC_NODE": 66.9179, "ARG_OF_PERICENTER": 267.6759, "MEAN_ANOMALY": 92.4168, "EPHEMERIS_TYPE": 0, "CLASSIFICATION_TYPE": "U", "NORAD_CAT_ID": 66698, "ELEMENT_SET_NO": 999, "REV_AT_EPOCH": 342, "BSTAR": 0.0004249182, "MEAN_MOTION_DOT": 8.409e-05, "MEAN_MOTION_DDOT": 0}, "tle": {"line1": "1 66698U 25276AJ  25355.31346988  .00008409  00000+0  42492-3 0  9993", "line2": "2 66698  97.4396  66.9179 0002678 267.6759  92.4168 15.17313323  3426"}}, "geometry": {"type": "Point", "coordinates": [-116.89812777591273, -30.626095660680804]}}, {"type": "Feature", "properties": {"norad_id": 66699, "name": "IRIDE FM5", "group": "last-30-days", "lat": -31.439084722757624, "lon": -117.04068844440887, "alt_km": 517.1335805238323, "timestamp": "2025-12-21T22:41:40.164380+00:00", "meta": {"OBJECT_NAME": "IRIDE FM5", "OBJECT_ID": "2025-276AK", "EPOCH": "2025-12-21T12:16:04.408896", "MEAN_MOTION": 15.17328524, "ECCENTRICITY": 0.00048011, "INCLINATION": 97.444, "RA_OF_ASC_NODE": 67.1171, "ARG_OF_PERICENTER": 242.2933, "MEAN_ANOMALY": 117.7814, "EPHEMERIS_TYPE": 0, "CLASSIFICATION_TYPE": "U", "NORAD_CAT_ID": 66699, "ELEMENT_SET_NO": 999, "REV_AT_EPOCH": 345, "BSTAR": 0.00028484781, "MEAN_MOTION_DOT": 5.616e-05, "MEAN_MOTION_DDOT": 0}, "tle": {"line1": "1 66699U 25276AK  25355.51116214  .00005616  00000+0  28485-3 0  9996", "line2": "2 66699  97.4440  67.1171 0004801 242.2933 117.7814 15.17328524  3456"}}, "geometry": {"type": "Point", "coordinates": [-117.04068844440887, -31.439084722757624]}}, {"type": "Feature", "properties": {"norad_id": 66700, "name": "IRIDE FM6", "group": "last-30-days", "lat": -76.97291198852342, "lon": 101.98181427992692, "alt_km": 519.0929895372647, "timestamp": "2025-12-21T22:41:40.164392+00:00", "meta": {"OBJECT_NAME": "IRIDE FM6", "OBJECT_ID": "2025-276AL", "EPOCH": "2025-12-21T10:23:19.273344", "MEAN_MOTION": 15.1818801, "ECCENTRICITY": 0.00015294, "INCLINATION": 97.4428, "RA_OF_ASC_NODE": 67.0733, "ARG_OF_PERICENTER": 167.052, "MEAN_ANOMALY": 193.0754, "EPHEMERIS_TYPE": 0, "CLASSIFICATION_TYPE": "U", "NORAD_CAT_ID": 66700, "ELEMENT_SET_NO": 999, "REV_AT_EPOCH": 344, "BSTAR": 0.00041791892, "MEAN_MOTION_DOT": 8.48e-05, "MEAN_MOTION_DDOT": 0}, "tle": {"line1": "1 66700U 25276AL  25355.43286196  .00008480  00000+0  41792-3 0  9995", "line2": "2 66700  97.4428  67.0733 0001529 167.0520 193.0754 15.18188010  3442"}}, "geometry": {"type": "Point", "coordinates": [101.98181427992692, -76.97291198852342]}}, {"type": "Feature", "properties": {"norad_id": 66701, "name": "IRIDE FM7", "group": "last-30-days", "lat": -30.824565597121694, "lon": -116.92453562535574, "alt_km": 519.8332090776339, "timestamp": "2025-12-21T22:41:40.164402+00:00", "meta": {"OBJECT_NAME": "IRIDE FM7", "OBJECT_ID": "2025-276AM", "EPOCH": "2025-12-21T12:16:08.274432", "MEAN_MOTION": 15.17123308, "ECCENTRICITY": 0.00020409, "INCLINATION": 97.4408, "RA_OF_ASC_NODE": 67.1217, "ARG_OF_PERICENTER": 246.0122, "MEAN_ANOMALY": 114.0898, "EPHEMERIS_TYPE": 0, "CLASSIFICATION_TYPE": "U", "NORAD_CAT_ID": 66701, "ELEMENT_SET_NO": 999, "REV_AT_EPOCH": 345, "BSTAR": -0.0071120661, "MEAN_MOTION_DOT": -0.00138346, "MEAN_MOTION_DDOT": 0}, "tle": {"line1": "1 66701U 25276AM  25355.51120688 -.00138346  00000+0 -71121-2 0  9993", "line2": "2 66701  97.4408  67.1217 0002040 246.0122 114.0898 15.17123308  3455"}}, "geometry": {"type": "Point", "coordinates": [-116.92453562535574, -30.824565597121694]}}, {"type": "Feature", "properties": {"norad_id": 66702, "name": "IRIDE FM8", "group": "last-30-days", "lat": -32.38827301592109, "lon": -117.21356044505656, "alt_km": 518.9173547107221, "timestamp": "2025-12-21T22:41:40.164412+00:00", "meta": {"OBJECT_NAME": "IRIDE FM8", "OBJECT_ID": "2025-276AN", "EPOCH": "2025-12-21T12:15:50.314464", "MEAN_MOTION": 15.17362321, "ECCENTRICITY": 0.00028095, "INCLINATION": 97.4405, "RA_OF_ASC_NODE": 67.1148, "ARG_OF_PERICENTER": 271.0756, "MEAN_ANOMALY": 89.0156, "EPHEMERIS_TYPE": 0, "CLASSIFICATION_TYPE": "U", "NORAD_CAT_ID": 66702, "ELEMENT_SET_NO": 999, "REV_AT_EPOCH": 345, "BSTAR": 0.00040971229, "MEAN_MOTION_DOT": 8.117e-05, "MEAN_MOTION_DDOT": 0}, "tle": {"line1": "1 66702U 25276AN  25355.51099901  .00008117  00000+0  40971-3 0  9997", "line2": "2 66702  97.4405  67.1148 0002809 271.0756  89.0156 15.17362321  3458"}}, "geometry": {"type": "Point", "coordinates": [-117.21356044505656, -32.38827301592109]}}, {"type": "Feature", "properties": {"norad_id": 66703, "name": "PELICAN-6", "group": "last-30-days", "lat": -39.512573388852026, "lon": -118.64150604028308, "alt_km": 519.9490715933107, "timestamp": "2025-12-21T22:41:40.164424+00:00", "meta": {"OBJECT_NAME": "PELICAN-6", "OBJECT_ID": "2025-276AP", "EPOCH": "2025-12-21T13:48:53.456544", "MEAN_MOTION": 15.17322005, "ECCENTRICITY": 9.03e-05, "INCLINATION": 97.4414, "RA_OF_ASC_NODE": 67.1831, "ARG_OF_PERICENTER": 251.8635, "MEAN_ANOMALY": 108.2501, "EPHEMERIS_TYPE": 0, "CLASSIFICATION_TYPE": "U", "NORAD_CAT_ID": 66703, "ELEMENT_SET_NO": 999, "REV_AT_EPOCH": 346, "BSTAR": 0.00021455991, "MEAN_MOTION_DOT": 4.212e-05, "MEAN_MOTION_DDOT": 0}, "tle": {"line1": "1 66703U 25276AP  25355.57561871  .00004212  00000+0  21456-3 0  9993", "line2": "2 66703  97.4414  67.1831 0000903 251.8635 108.2501 15.17322005  3467"}}, "geometry": {"type": "Point", "coordinates": [-118.64150604028308, -39.512573388852026]}}, {"type": "Feature", "properties": {"norad_id": 66704, "name": "FLOCK 4H-1", "group": "last-30-days", "lat": -81.87307762489627, "lon": 133.7638949582194, "alt_km": 519.2555705114564, "timestamp": "2025-12-21T22:41:40.164434+00:00", "meta": {"OBJECT_NAME": "FLOCK 4H-1", "OBJECT_ID": "2025-276AQ", "EPOCH": "2025-12-21T10:25:13.651392", "MEAN_MOTION": 15.18059569, "ECCENTRICITY": 0.00017758, "INCLINATION": 97.439, "RA_OF_ASC_NODE": 67.0574, "ARG_OF_PERICENTER": 175.4041, "MEAN_ANOMALY": 184.721, "EPHEMERIS_TYPE": 0, "CLASSIFICATION_TYPE": "U", "NORAD_CAT_ID": 66704, "ELEMENT_SET_NO": 999, "REV_AT_EPOCH": 344, "BSTAR": 0.00037079655, "MEAN_MOTION_DOT": 7.487e-05, "MEAN_MOTION_DDOT": 0}, "tle": {"line1": "1 66704U 25276AQ  25355.43418578  .00007487  00000+0  37080-3 0  9991", "line2": "2 66704  97.4390  67.0574 0001775 175.4041 184.7210 15.18059569  3441"}}, "geometry": {"type": "Point", "coordinates": [133.7638949582194, -81.87307762489627]}}, {"type": "Feature", "properties": {"norad_id": 66705, "name": "FLOCK 4H-2", "group": "last-30-days", "lat": -80.6767305138137, "lon": 120.2926342030098, "alt_km": 519.1953626040095, "timestamp": "2025-12-21T22:41:40.164444+00:00", "meta": {"OBJECT_NAME": "FLOCK 4H-2", "OBJECT_ID": "2025-276AR", "EPOCH": "2025-12-21T10:24:37.666656", "MEAN_MOTION": 15.18111901, "ECCENTRICITY": 0.00011239, "INCLINATION": 97.4384, "RA_OF_ASC_NODE": 67.0582, "ARG_OF_PERICENTER": 163.8014, "MEAN_ANOMALY": 196.3256, "EPHEMERIS_TYPE": 0, "CLASSIFICATION_TYPE": "U", "NORAD_CAT_ID": 66705, "ELEMENT_SET_NO": 999, "REV_AT_EPOCH": 344, "BSTAR": 0.00042493283, "MEAN_MOTION_DOT": 8.604e-05, "MEAN_MOTION_DDOT": 0}, "tle": {"line1": "1 66705U 25276AR  25355.43376929  .00008604  00000+0  42493-3 0  9991", "line2": "2 66705  97.4384  67.0582 0001123 163.8014 196.3256 15.18111901  3440"}}, "geometry": {"type": "Point", "coordinates": [120.2926342030098, -80.6767305138137]}}]}